{
  "type": "FeatureCollection",
  "features": [
    {
      "type": "Feature",
      "properties": {
        "norad_id": 30837,
        "name": "FENGYUN 1C DEB",
        "group": "fengyun-1c-debris",
        "lat": 39.3005724837331,
        "lon": -37.60740837520666,
        "alt_km": 846.2668204618703,
        "timestamp": "2025-12-09T05:43:21.004967+00:00",
        "meta_object_name": "FENGYUN 1C DEB",
        "meta_object_id": "1999-025AVX",
        "meta_epoch": "2025-12-07T10:06:57.524832",
        "meta_mean_motion": 14.14511758,
        "meta_eccentricity": 0.00327461,
        "meta_inclination": 98.6781,
        "meta_ra_of_asc_node": 327.8083,
        "meta_arg_of_pericenter": 148.392,
        "meta_mean_anomaly": 4.7927,
        "meta_ephemeris_type": 0,
        "meta_classification_type": "U",
        "meta_norad_cat_id": 30837,
        "meta_element_set_no": 999,
        "meta_rev_at_epoch": 96743,
        "meta_bstar": 0.00052745107,
        "meta_mean_motion_dot": 9.74e-06,
        "meta_mean_motion_ddot": 0,
        "tle_line1": "1 30837U 99025AVX 25341.42149913  .00000974  00000+0  52745-3 0  9999",
        "tle_line2": "2 30837  98.6781 327.8083 0032746 148.3920   4.7927 14.14511758967437"
      },
      "geometry": {
        "type": "Point",
        "coordinates": [
          -37.60740837520666,
          39.3005724837331
        ]
      }
    },
    {
      "type": "Feature",
      "properties": {
        "norad_id": 30838,
        "name": "FENGYUN 1C DEB",
        "group": "fengyun-1c-debris",
        "lat": -11.366871227452783,
        "lon": -101.2976162648847,
        "alt_km": 761.6187064215646,
        "timestamp": "2025-12-09T05:43:21.004977+00:00",
        "meta_object_name": "FENGYUN 1C DEB",
        "meta_object_id": "1999-025AVY",
        "meta_epoch": "2025-12-07T17:16:52.709664",
        "meta_mean_motion": 14.47599829,
        "meta_eccentricity": 0.00337329,
        "meta_inclination": 99.0423,
        "meta_ra_of_asc_node": 255.2458,
        "meta_arg_of_pericenter": 174.3508,
        "meta_mean_anomaly": 185.807,
        "meta_ephemeris_type": 0,
        "meta_classification_type": "U",
        "meta_norad_cat_id": 30838,
        "meta_element_set_no": 999,
        "meta_rev_at_epoch": 97241,
        "meta_bstar": 0.0042241359,
        "meta_mean_motion_dot": 0.00015652,
        "meta_mean_motion_ddot": 0,
        "tle_line1": "1 30838U 99025AVY 25341.72005451  .00015652  00000+0  42241-2 0  9999",
        "tle_line2": "2 30838  99.0423 255.2458 0033732 174.3508 185.8070 14.47599829972418"
      },
      "geometry": {
        "type": "Point",
        "coordinates": [
          -101.2976162648847,
          -11.366871227452783
        ]
      }
    },
    {
      "type": "Feature",
      "properties": {
        "norad_id": 30840,
        "name": "FENGYUN 1C DEB",
        "group": "fengyun-1c-debris",
        "lat": -56.29705422891547,
        "lon": 6.897404072750578,
        "alt_km": 663.3756406453622,
        "timestamp": "2025-12-09T05:43:21.004987+00:00",
        "meta_object_name": "FENGYUN 1C DEB",
        "meta_object_id": "1999-025AWA",
        "meta_epoch": "2025-12-08T18:28:17.194080",
        "meta_mean_motion": 14.61042971,
        "meta_eccentricity": 0.0218202,
        "meta_inclination": 98.0232,
        "meta_ra_of_asc_node": 354.2342,
        "meta_arg_of_pericenter": 23.0749,
        "meta_mean_anomaly": 338.0073,
        "meta_ephemeris_type": 0,
        "meta_classification_type": "U",
        "meta_norad_cat_id": 30840,
        "meta_element_set_no": 999,
        "meta_rev_at_epoch": 73073,
        "meta_bstar": 0.0011409,
        "meta_mean_motion_dot": 7.812e-05,
        "meta_mean_motion_ddot": 0,
        "tle_line1": "1 30840U 99025AWA 25342.76964345  .00007812  00000+0  11409-2 0  9994",
        "tle_line2": "2 30840  98.0232 354.2342 0218202  23.0749 338.0073 14.61042971730733"
      },
      "geometry": {
        "type": "Point",
        "coordinates": [
          6.897404072750578,
          -56.29705422891547
        ]
      }
    },
    {
      "type": "Feature",
      "properties": {
        "norad_id": 30843,
        "name": "FENGYUN 1C DEB",
        "group": "fengyun-1c-debris",
        "lat": -60.990084307474184,
        "lon": -141.62741095605924,
        "alt_km": 763.0761454848152,
        "timestamp": "2025-12-09T05:43:21.004998+00:00",
        "meta_object_name": "FENGYUN 1C DEB",
        "meta_object_id": "1999-025AWD",
        "meta_epoch": "2025-12-08T10:26:14.419104",
        "meta_mean_motion": 14.52464485,
        "meta_eccentricity": 0.01488582,
        "meta_inclination": 98.8429,
        "meta_ra_of_asc_node": 53.8301,
        "meta_arg_of_pericenter": 132.5551,
        "meta_mean_anomaly": 228.8321,
        "meta_ephemeris_type": 0,
        "meta_classification_type": "U",
        "meta_norad_cat_id": 30843,
        "meta_element_set_no": 999,
        "meta_rev_at_epoch": 99262,
        "meta_bstar": 0.00038464416,
        "meta_mean_motion_dot": 1.758e-05,
        "meta_mean_motion_ddot": 0,
        "tle_line1": "1 30843U 99025AWD 25342.43488911  .00001758  00000+0  38464-3 0  9995",
        "tle_line2": "2 30843  98.8429  53.8301 0148858 132.5551 228.8321 14.52464485992623"
      },
      "geometry": {
        "type": "Point",
        "coordinates": [
          -141.62741095605924,
          -60.990084307474184
        ]
      }
    },
    {
      "type": "Feature",
      "properties": {
        "norad_id": 30845,
        "name": "FENGYUN 1C DEB",
        "group": "fengyun-1c-debris",
        "lat": 40.88450993600004,
        "lon": -23.099646570839624,
        "alt_km": 1043.491951406887,
        "timestamp": "2025-12-09T05:43:21.005008+00:00",
        "meta_object_name": "FENGYUN 1C DEB",
        "meta_object_id": "1999-025AWF",
        "meta_epoch": "2025-12-08T19:40:10.053984",
        "meta_mean_motion": 13.76853785,
        "meta_eccentricity": 0.0192077,
        "meta_inclination": 98.3792,
        "meta_ra_of_asc_node": 343.8619,
        "meta_arg_of_pericenter": 281.1731,
        "meta_mean_anomaly": 203.3369,
        "meta_ephemeris_type": 0,
        "meta_classification_type": "U",
        "meta_norad_cat_id": 30845,
        "meta_element_set_no": 999,
        "meta_rev_at_epoch": 94189,
        "meta_bstar": 0.00063432,
        "meta_mean_motion_dot": 6.77e-06,
        "meta_mean_motion_ddot": 0,
        "tle_line1": "1 30845U 99025AWF 25342.81956081  .00000677  00000+0  63432-3 0  9999",
        "tle_line2": "2 30845  98.3792 343.8619 0192077 281.1731 203.3369 13.76853785941893"
      },
      "geometry": {
        "type": "Point",
        "coordinates": [
          -23.099646570839624,
          40.88450993600004
        ]
      }
    },
    {
      "type": "Feature",
      "properties": {
        "norad_id": 30846,
        "name": "FENGYUN 1C DEB",
        "group": "fengyun-1c-debris",
        "lat": 17.167233444003045,
        "lon": -20.961376049324638,
        "alt_km": 792.408046582872,
        "timestamp": "2025-12-09T05:43:21.005020+00:00",
        "meta_object_name": "FENGYUN 1C DEB",
        "meta_object_id": "1999-025AWG",
        "meta_epoch": "2025-12-08T10:53:36.260160",
        "meta_mean_motion": 14.41509116,
        "meta_eccentricity": 0.00540824,
        "meta_inclination": 99.3209,
        "meta_ra_of_asc_node": 155.2751,
        "meta_arg_of_pericenter": 349.0593,
        "meta_mean_anomaly": 64.3211,
        "meta_ephemeris_type": 0,
        "meta_classification_type": "U",
        "meta_norad_cat_id": 30846,
        "meta_element_set_no": 999,
        "meta_rev_at_epoch": 97868,
        "meta_bstar": 0.0012947568,
        "meta_mean_motion_dot": 4.229e-05,
        "meta_mean_motion_ddot": 0,
        "tle_line1": "1 30846U 99025AWG 25342.45389190  .00004229  00000+0  12948-2 0  9993",
        "tle_line2": "2 30846  99.3209 155.2751 0054082 349.0593  64.3211 14.41509116978680"
      },
      "geometry": {
        "type": "Point",
        "coordinates": [
          -20.961376049324638,
          17.167233444003045
        ]
      }
    },
    {
      "type": "Feature",
      "properties": {
        "norad_id": 30847,
        "name": "FENGYUN 1C DEB",
        "group": "fengyun-1c-debris",
        "lat": -3.088936192989448,
        "lon": -37.02180322758597,
        "alt_km": 881.6493052309452,
        "timestamp": "2025-12-09T05:43:21.005030+00:00",
        "meta_object_name": "FENGYUN 1C DEB",
        "meta_object_id": "1999-025AWH",
        "meta_epoch": "2025-12-07T03:58:18.227136",
        "meta_mean_motion": 14.16959864,
        "meta_eccentricity": 0.00653341,
        "meta_inclination": 98.7317,
        "meta_ra_of_asc_node": 141.4184,
        "meta_arg_of_pericenter": 344.2825,
        "meta_mean_anomaly": 70.656,
        "meta_ephemeris_type": 0,
        "meta_classification_type": "U",
        "meta_norad_cat_id": 30847,
        "meta_element_set_no": 999,
        "meta_rev_at_epoch": 95976,
        "meta_bstar": 0.002959396,
        "meta_mean_motion_dot": 6.029e-05,
        "meta_mean_motion_ddot": 0,
        "tle_line1": "1 30847U 99025AWH 25341.16548874  .00006029  00000+0  29594-2 0  9992",
        "tle_line2": "2 30847  98.7317 141.4184 0065334 344.2825  70.6560 14.16959864959764"
      },
      "geometry": {
        "type": "Point",
        "coordinates": [
          -37.02180322758597,
          -3.088936192989448
        ]
      }
    }
  ]
}